STARLINK-35137          
1 65686U 25212L   25282.66667824 -.01945733  00000+0 -18143-1 0  9998
2 65686  53.1590 327.7819 0000951  66.4738 232.3555 15.69714093  4028
STARLINK-34856          
1 65687U 25212M   25282.66667824 -.02071792  00000+0 -26870-1 0  9991
2 65687  53.1587 328.7369 0001375  66.5458 131.7310 15.61789083  4021
STARLINK-34930          
1 65688U 25212N   25282.66667824 -.02058049  00000+0 -26672-1 0  9992
2 65688  53.1587 328.7124 0001441  74.6669 135.1137 15.61782480  4129
STARLINK-34875          
1 65689U 25212P   25282.66667824 -.02069496  00000+0 -26836-1 0  9993
2 65689  53.1587 328.7289 0001423  69.8371 132.2732 15.61788900  4120
STARLINK-34790          
1 65690U 25212Q   25282.66667824 -.02057680  00000+0 -26666-1 0  9998
2 65690  53.1586 328.7211 0001519  74.9212 131.0257 15.61782034  3976
STARLINK-34691          
1 65691U 25212R   25282.66667824 -.01954623  00000+0 -18232-1 0  9991
2 65691  53.1595 327.7779 0000948  68.7801 231.9624 15.69721067  4128
STARLINK-34825          
1 65692U 25212S   25282.66667824 -.02054181  00000+0 -26618-1 0  9990
2 65692  53.1588 328.7169 0001489  71.8855 135.9808 15.61778349  4124
STARLINK-35060          
1 65693U 25212T   25282.66667824 -.01952337  00000+0 -18209-1 0  9997
2 65693  53.1592 327.7737 0000922  66.7016 235.9586 15.69719267  4129
STARLINK-35204          
1 65694U 25212U   25282.66667824 -.02059222  00000+0 -26688-1 0  9990
2 65694  53.1586 328.7046 0001436  71.1883 142.4244 15.61783476  4139
STARLINK-35221          
1 65695U 25212V   25282.66667824 -.02062862  00000+0 -26741-1 0  9995
2 65695  53.1585 328.7005 0001440  68.5783 146.9512 15.61784658  4138
STARLINK-34734          
1 65696U 25212W   25282.66667824 -.02053597  00000+0 -26611-1 0  9997
2 65696  53.1588 328.6965 0001346  71.8551 145.5936 15.61779015  4126
STARLINK-35113          
1 65697U 25212X   25282.66667824 -.02051950  00000+0 -26588-1 0  9992
2 65697  53.1590 328.6927 0001350  75.8064 143.5617 15.61776899  4127
STARLINK-35090          
1 65698U 25212Y   25282.66667824 -.02054257  00000+0 -26618-1 0  9990
2 65698  53.1589 328.6882 0001471  77.5528 143.7305 15.61779803  4128
STARLINK-35086          
1 65699U 25212Z   25282.66667824 -.02055858  00000+0 -26641-1 0  9995
2 65699  53.1586 328.6802 0001491  74.6054 150.5102 15.61780651  4025
STARLINK-35101          
1 65700U 25212AA  25282.66667824 -.02049180  00000+0 -26549-1 0  9996
2 65700  53.1586 328.6846 0001323  74.3589 148.8425 15.61775572  4024
STARLINK-35046          
1 65701U 25212AB  25282.66667824 -.02070364  00000+0 -26850-1 0  9990
2 65701  53.1588 328.6759 0001484  81.2025 145.8306 15.61786757  4123
STARLINK-35075          
1 65702U 25212AC  25282.66667824 -.02072967  00000+0 -26888-1 0  9993
2 65702  53.1587 328.6719 0001299  75.1339 153.8127 15.61790050  4124
STARLINK-34839          
1 65703U 25212AD  25282.66667824  .00184936  00000+0  19589-2 0  9991
2 65703  53.1586 328.6664 0001960  28.3988 202.9828 15.63028960  4128
SHIKONGXING 01          
1 65712U 25214A   25282.59031256  .00003795  00000+0  40190-3 0  9995
2 65712  49.9870  31.1312 0013522 352.4520   7.6216 14.91135178  2289
GEESAT-6 01             
1 65713U 25214B   25282.53150127  .00003062  00000+0  36710-3 0  9999
2 65713  49.9732  31.4724 0015117 348.8610  11.1993 14.86590524  2273
GEESAT-6 02             
1 65714U 25214C   25282.59586153  .00003732  00000+0  44219-3 0  9995
2 65714  49.9848  31.1614 0013134 341.2706  18.7748 14.86555464  2283
GEESAT-6 03             
1 65715U 25214D   25282.58622387  .00004471  00000+0  46395-3 0  9993
2 65715  49.9831  31.1014 0013650 354.2618   5.8165 14.91578870  2281
GEESAT-6 04             
1 65716U 25214E   25282.58500911  .00004551  00000+0  47018-3 0  9994
2 65716  49.9878  31.0994 0012787 355.6279   4.4549 14.91731328  2287
GEESAT-6 05             
1 65717U 25214F   25282.59190484  .00003543  00000+0  39391-3 0  9991
2 65717  49.9797  31.1317 0019513 351.3332   8.7268 14.89266438  2282
GEESAT-6 06             
1 65718U 25214G   25282.58621479  .00004011  00000+0  41849-3 0  9996
2 65718  49.9902  31.1089 0013052 353.7693   6.3084 14.91605622  2280
GEESAT-6 07             
1 65719U 25214H   25282.58477544  .00004548  00000+0  46977-3 0  9991
2 65719  49.9822  31.0916 0014642 354.0169   6.0595 14.91721049  2295
GEESAT-6 08             
1 65720U 25214J   25282.58930072  .00003958  00000+0  41816-3 0  9994
2 65720  49.9913  31.1302 0013781 343.3303  16.7184 14.91124449  2284
GEESAT-6 09             
1 65721U 25214K   25282.52335691  .00004027  00000+0  43066-3 0  9992
2 65721  49.9861  31.4373 0011251 343.9974  16.0610 14.90607157  2275
GEESAT-6 10             
1 65722U 25214L   25282.60532103  .00003316  00000+0  39640-3 0  9992
2 65722  49.9897  31.2270 0010778 346.5354  13.5296 14.86505231  2281
GEESAT-6 11             
1 65723U 25214M   25282.58364527  .00004563  00000+0  46993-3 0  9997
2 65723  49.9867  31.0891 0015189 354.4109   5.6661 14.91831882  2281
1998-067XH              
1 65729U 98067XH  25282.58464613  .00074736  00000+0  10921-2 0  9996
2 65729  51.6303  99.6333 0001863 116.3383 243.7800 15.54956207  3130
1998-067XJ              
1 65730U 98067XJ  25282.56825510  .00146410  00000+0  19028-2 0  9999
2 65730  51.6301  99.5238 0004065 292.3068  67.7493 15.57784511  3137
1998-067XK              
1 65731U 98067XK  25282.58910409  .00056492  00000+0  85277-3 0  9994
2 65731  51.6308  99.6623 0001354 288.9236  71.1608 15.54185611  3130
RSP-03                  
1 65732U 98067XL  25282.58692052  .00063619  00000+0  94543-3 0  9991
2 65732  51.6304  99.6475 0001513 292.0859  67.9971 15.54564821  3147
1998-067XM              
1 65733U 98067XM  25282.58310071  .00079602  00000+0  11521-2 0  9993
2 65733  51.6308  99.6232 0001647 118.7138 241.4019 15.55190678  3143
STARLINK-34086          
1 65734U 25216A   25282.66667824 -.00524952  00000+0 -37767-2 0  9995
2 65734  53.1556 318.6453 0000933  52.4763 228.3579 15.74379253  3278
STARLINK-35099          
1 65735U 25216B   25282.66667824 -.00489692  00000+0 -35117-2 0  9994
2 65735  53.1554 318.6409 0000616  59.5960 223.1595 15.74358302  3322
STARLINK-35167          
1 65736U 25216C   25282.66667824 -.00498241  00000+0 -35761-2 0  9990
2 65736  53.1557 318.6371 0000604  94.2600 190.4172 15.74361767  3380
STARLINK-35121          
1 65737U 25216D   25282.66667824 -.00440188  00000+0 -31418-2 0  9993
2 65737  53.1556 318.6326 0000707  33.2025 253.3913 15.74330232  3383
STARLINK-35108          
1 65738U 25216E   25282.66667824 -.00438619  00000+0 -31291-2 0  9999
2 65738  53.1553 318.6290 0001110  75.8223 212.6806 15.74334876  3435
STARLINK-35106          
1 65739U 25216F   25282.66667824 -.00385832  00000+0 -27382-2 0  9994
2 65739  53.1553 318.6250 0000312 102.5792 187.8277 15.74311278  3328
STARLINK-35130          
1 65740U 25216G   25282.66667824 -.00288508  00000+0 -20272-2 0  9999
2 65740  53.1553 318.6212 0001373  43.7237 248.5853 15.74261115  3437
STARLINK-35284          
1 65741U 25216H   25282.66667824 -.00412872  00000+0 -29368-2 0  9998
2 65741  53.1554 318.6171 0001015  47.4863 246.7458 15.74330747  3385
STARLINK-35316          
1 65742U 25216J   25282.66667824 -.00503911  00000+0 -36169-2 0  9991
2 65742  53.1551 318.6127 0000903  64.2163 231.9443 15.74375078  3385
STARLINK-35319          
1 65743U 25216K   25282.66667824 -.00523633  00000+0 -37658-2 0  9999
2 65743  53.1555 318.6088 0001309  87.8133 210.2686 15.74382326  3434
STARLINK-35173          
1 65744U 25216L   25282.66667824 -.00492790  00000+0 -35341-2 0  9996
2 65744  53.1556 318.6049 0000593  92.0437 207.9570 15.74365490  3430
STARLINK-34808          
1 65745U 25216M   25282.66667824 -.00481390  00000+0 -34482-2 0  9996
2 65745  53.1546 318.6003 0000953  86.5392 215.3784 15.74359892  3358
STARLINK-34704          
1 65746U 25216N   25282.66667824 -.00511253  00000+0 -36718-2 0  9993
2 65746  53.1554 318.5928 0000395  90.2723 215.4640 15.74384300  3379
STARLINK-35214          
1 65747U 25216P   25282.66667824 -.00512356  00000+0 -36810-2 0  9992
2 65747  53.1556 318.5970 0000937  76.8187 227.0158 15.74376217  3387
STARLINK-35265          
1 65748U 25216Q   25282.66667824 -.00530923  00000+0 -38181-2 0  9996
2 65748  53.1556 318.5848 0001161  51.5424 258.0065 15.74403699  3382
STARLINK-35288          
1 65749U 25216R   25282.66667824 -.00433834  00000+0 -30883-2 0  9991
2 65749  53.1556 318.5803 0000947 104.9005 206.5273 15.74371378  3324
STARLINK-35165          
1 65750U 25216S   25282.66667824 -.00503399  00000+0 -36130-2 0  9998
2 65750  53.1565 318.5728 0000664  73.4402 241.8859 15.74376661  3321
STARLINK-35260          
1 65751U 25216T   25282.66667824 -.00488573  00000+0 -35013-2 0  9994
2 65751  53.1561 318.5683 0000648  69.3807 247.8587 15.74370533  3385
STARLINK-34893          
1 65752U 25216U   25282.66667824 -.00521615  00000+0 -37498-2 0  9999
2 65752  53.1555 318.5887 0000589  67.1380 240.5167 15.74389491  3276
STARLINK-34894          
1 65753U 25216V   25282.66667824 -.00535151  00000+0 -38501-2 0  9996
2 65753  53.1558 318.5765 0000778  82.1501 231.2347 15.74408160  3358
STARLINK-35287          
1 65754U 25216W   25282.66667824 -.00521929  00000+0 -37521-2 0  9996
2 65754  53.1563 318.5607 0001113  69.1686 251.9058 15.74387751  3274
STARLINK-35294          
1 65755U 25216X   25282.66667824 -.00487982  00000+0 -34968-2 0  9999
2 65755  53.1563 318.5648 0000972  84.0925 235.0667 15.74368722  3382
STARLINK-35275          
1 65756U 25216Y   25282.66667824 -.00466183  00000+0 -33333-2 0  9995
2 65756  53.1564 318.5488 0000860  73.2461 253.5759 15.74359669  3384
STARLINK-35211          
1 65757U 25216Z   25282.66667824 -.00679245  00000+0 -49546-2 0  9994
2 65757  53.1564 318.5446 0000775  90.1872 238.5441 15.74486360  3388
